OBJECT_NAME,OBJECT_ID,EPOCH,MEAN_MOTION,ECCENTRICITY,INCLINATION,RA_OF_ASC_NODE,ARG_OF_PERICENTER,MEAN_ANOMALY,EPHEMERIS_TYPE,CLASSIFICATION_TYPE,NORAD_CAT_ID,ELEMENT_SET_NO,REV_AT_EPOCH,BSTAR,MEAN_MOTION_DOT,MEAN_MOTION_DDOT
INTELSAT 23 (IS-23),2012-057A,2026-07-01T10:21:18.186336,1.00267912,.00002164,0.0117,28.2551,181.4970,172.0587,0,U,38867,999,5009,0,-.274E-5,0
FM-6,2013-058A,2026-06-30T23:47:19.305888,1.00271573,.00018593,0.0186,48.2586,133.0710,338.2378,0,U,39360,999,4621,0,-.5E-7,0
INTELSAT 30 (IS-30),2014-062A,2026-07-01T13:20:33.425088,1.00269881,.00014612,0.0216,49.0056,348.6239,347.0596,0,U,40271,999,693,0,-.14E-5,0
DIRECTV 14,2014-078B,2026-07-01T11:50:47.291424,1.00273352,.00003885,0.0108,16.3305,24.0591,317.6198,0,U,40333,999,4218,0,-.115E-5,0
DIRECTV 15,2015-026A,2026-07-01T13:23:04.142976,1.00269207,.00005449,0.0147,58.1811,348.5488,330.7682,0,U,40663,999,4060,0,-.92E-6,0
SKY MEXICO-1,2015-026B,2026-07-01T11:56:39.228000,1.00270650,.00026527,0.0187,24.6323,93.7961,261.4814,0,U,40664,999,4059,0,-.224E-5,0
INTELSAT 34 (IS-34),2015-039A,2026-07-01T12:03:16.094304,1.00270203,.00005332,0.0112,1.7901,35.6378,7.4456,0,U,40874,999,3977,0,-.275E-5,0
INTELSAT 31 (IS-31),2016-035A,2026-07-01T13:23:37.148640,1.00270123,.00006522,0.0162,287.8314,350.1203,107.5034,0,U,41581,999,3682,0,-.14E-5,0
INTELSAT 36 (IS-36),2016-053A,2026-07-01T10:55:59.858688,1.00270597,.00020696,0.0105,18.1465,330.3366,163.5254,0,U,41747,999,3610,0,-.14E-6,0
INTELSAT 32E (IS-32E),2017-007B,2026-06-29T12:12:28.637856,1.00268307,.0000889,0.0243,13.6582,344.8527,59.0307,0,U,41945,999,3434,0,0,0
INTELSAT 35E (IS-35E),2017-041A,2026-07-01T10:21:59.912352,1.00267116,.00023085,0.0222,29.9673,70.2432,300.2682,0,U,42818,999,3295,0,0,0
INTELSAT 37E (IS-37E),2017-059A,2026-07-01T08:48:41.303808,1.00268190,.0002881,0.0252,37.6937,66.4474,289.4444,0,U,42950,999,3220,0,0,0
AZERSPACE 2 (IS-38),2018-074A,2026-07-01T14:14:39.430752,1.00270322,.00016272,0.0255,35.0828,70.9209,72.4128,0,U,43632,999,2859,0,0,0
HORIZONS-3E,2018-074B,2026-07-01T14:14:13.210944,1.00270279,.00005627,0.0185,202.8567,76.6574,22.6970,0,U,43633,999,2848,0,-.2E-6,0
AT&T T-16,2019-034A,2026-07-01T13:22:04.239264,1.00268857,.00007568,0.0166,61.9979,283.2097,34.0538,0,U,44333,999,2577,0,-.104E-5,0
INTELSAT 39 (IS-39),2019-049B,2026-07-01T14:21:14.027328,1.00269795,.00009522,0.0221,21.6791,322.1233,213.1109,0,U,44476,999,2527,0,0,0
GALAXY 30 (G-30),2020-056C,2026-07-01T13:36:05.950656,1.00272953,.0002239,0.0158,40.6278,58.0496,259.9584,0,U,46114,999,2143,0,.47E-6,0
GALAXY 33 (G-33),2022-128A,2026-07-01T13:47:53.195136,1.00273072,.00020533,0.0132,26.1790,72.2770,255.1499,0,U,54026,999,1388,0,.89E-6,0
GALAXY 34 (G-34),2022-128B,2026-07-01T13:47:18.921984,1.00274932,.00019478,0.0273,25.0397,81.3014,251.1256,0,U,54027,999,1405,0,0,0
GALAXY 31 (G-31),2022-153A,2026-07-01T13:37:30.106848,1.00272003,.00015977,0.0155,61.4199,35.8277,265.7380,0,U,54243,999,727,0,.24E-6,0
GALAXY 32 (G-32),2022-153B,2026-07-01T10:10:25.823136,1.00273064,.00020745,0.0075,19.9443,30.4815,290.6632,0,U,54244,999,1328,0,-.164E-5,0
GALAXY 35 (G-35),2022-170A,2026-07-01T13:18:04.694400,1.00273376,.00023407,0.0161,47.1825,53.5929,285.2368,0,U,54741,999,1303,0,-.152E-5,0
GALAXY 36 (G-36),2022-170B,2026-07-01T13:39:43.563744,1.00270685,.00028557,0.0067,331.2794,122.1653,302.1009,0,U,54742,999,1291,0,-.175E-5,0
GALAXY 37 (G-37),2023-112A,2026-07-01T13:37:05.668608,1.00271422,.00021286,0.0173,339.8436,121.1574,255.8906,0,U,57493,999,1068,0,.59E-6,0
